[{"OBJECT_NAME":"STARLINK-34762","OBJECT_ID":"2025-195R","EPOCH":"2026-03-09T22:53:59.162208","MEAN_MOTION":15.30202082,"ECCENTRICITY":0.0001068,"INCLINATION":53.1565,"RA_OF_ASC_NODE":256.9897,"ARG_OF_PERICENTER":71.9033,"MEAN_ANOMALY":288.2084,"EPHEMERIS_TYPE":0,"CLASSIFICATION_TYPE":"U","NORAD_CAT_ID":65473,"ELEMENT_SET_NO":999,"REV_AT_EPOCH":3001,"BSTAR":0.00097008167,"MEAN_MOTION_DOT":0.00028484,"MEAN_MOTION_DDOT":0},{"OBJECT_NAME":"PUCP-SAT 1","OBJECT_ID":"2013-066AC","EPOCH":"2026-03-09T22:02:13.763904","MEAN_MOTION":15.29426022,"ECCENTRICITY":0.00136836,"INCLINATION":97.5787,"RA_OF_ASC_NODE":61.0032,"ARG_OF_PERICENTER":300.1183,"MEAN_ANOMALY":59.87,"EPHEMERIS_TYPE":0,"CLASSIFICATION_TYPE":"U","NORAD_CAT_ID":39442,"ELEMENT_SET_NO":999,"REV_AT_EPOCH":66907,"BSTAR":0.00088755185,"MEAN_MOTION_DOT":0.00025373,"MEAN_MOTION_DDOT":0}]
